P/2019 T5 (ATLAS),e,33.4321,247.6756,189.5794,7.999256,0.0435642,0.80905456,29.1393,05/31.0/2021,2000,g 15.0,4.0
# From MPEC 2021-J28
P/2019 T6 (PANSTARRS),e,18.6945,71.2934,328.9100,5.434551,0.0777962,0.62258182,44.3572,05/31.0/2021,2000,g 15.5,4.0
# From MPEC 2021-J28
P/2019 U4 (PANSTARRS),e,11.6941,200.0152,180.9823,3.520613,0.1492027,0.47555948,92.5800,05/31.0/2021,2000,g 19.0,4.0
# From MPEC 2021-J28
C/2019 U5 (PANSTARRS),h,03/30.1926/2023,113.5180,2.6473,181.5644,1.000636,3.622576,2000,4.5,4.0
# From MPEC 2020-AA5
C/2019 U6,e,60.9997,235.6976,329.6573,403.9218,0.0001214,0.99773658,0.0000,06/18.7938/2020,2000,g 14.5,2.0
# From MPC119998
C/2019 V1 (Borisov),e,61.8633,83.1983,51.1884,1760,0.0000133,0.99824054,0.0000,07/16.5024/2020,2000,g 11.0,4.0
# From MPEC 2021-J28
P/2019 V2 (Groeller),e,11.8045,189.1793,336.0010,7.513226,0.0478591,0.33177486,10.6866,05/31.0/2021,2000,g 10.0,4.0
# From MPC119998
P/2019 W1 (PANSTARRS),e,23.4625,35.3952,18.6960,4.550144,0.1015468,0.26636797,76.5909,05/31.0/2021,2000,g 12.9,4.0
# From MPEC 2021-J28
P/2019 X1 (Pruyne),e,10.2453,43.6931,36.8191,6.173290,0.0642583,0.30285264,43.6699,05/31.0/2021,2000,g 10.4,4.0
# From MPC119999
C/2019 Y1 (ATLAS),e,73.2707,31.5211,57.9671,85.74596,0.0012413,0.99030358,0.0000,03/15.5866/2020,2000,g 13.7,4.0
# From MPEC 2020-L06
C/2019 Y4 (ATLAS),e,45.3789,120.5751,177.3194,567.2730,0.0000729,0.99955379,0.0000,05/31.0614/2020,2000,g 11.8,6.0
# From MPEC 2020-L06
C/2019 Y4-A (ATLAS),h,05/31.0446/2020,45.8207,120.9313,177.2620,1.001369,0.251253,2000,11.6,6.0
# From MPEC 2020-L06
C/2019 Y4-B (ATLAS),e,45.4553,120.6271,177.3952,1219,0.0000232,0.99979261,0.0000,05/31.0233/2020,2000,g 12.8,6.0
# From MPEC 2020-L06
C/2019 Y4-C (ATLAS),h,05/31.0026/2020,45.6030,120.6570,177.2954,1.002087,0.252305,2000,12.7,6.0
# From MPEC 2020-L06
C/2019 Y4-D (ATLAS),e,45.6445,121.0374,177.4340,67.71082,0.0017690,0.99628275,0.0000,05/31.1203/2020,2000,g 12.5,6.0
# From MPEC 2020-L06
C/2020 A2 (Iwamoto),e,120.7401,286.3758,68.2014,1330,0.0000203,0.99926498,0.0000,01/08.3893/2020,2000,g 13.5,4.0
# From MPEC 2020-L06
C/2020 A3 (ATLAS),h,07/29.7811/2019,146.7756,120.3790,271.1719,1.025561,5.839293,2000,8.0,4.0
# From MPEC 2020-L06
C/2020 B3 (Rankin),e,20.7072,185.8323,325.0553,1301,0.0000210,0.99742993,0.0000,10/19.6826/2019,2000,g 13.0,4.0
# From MPEC 2021-J28
C/2020 F2 (ATLAS),h,07/16.4130/2022,163.5785,250.2554,48.3712,1.003517,8.816971,2000,4.5,4.0
# From MPEC 2020-L06
C/2020 F3 (NEOWISE),e,128.9370,61.0141,37.2690,352.6668,0.0001488,0.99916420,0.0000,07/03.6634/2020,2000,g 12.5,3.2
# From MPEC 2021-J28
C/2020 F5 (MASTER),h,03/24.3138/2021,51.7148,350.6195,311.0833,1.003854,4.326035,2000,6.5,3.2
# From MPEC 2020-L06
C/2020 F6 (PANSTARRS),e,174.5822,207.8870,344.6138,397.4869,0.0001244,0.99116678,0.0000,04/11.6828/2020,2000,g 14.5,2.8
# From MPEC 2021-J28
C/2020 F7 (Lemmon),e,93.9535,321.8869,227.9776,736.1757,0.0000493,0.99275711,0.0000,11/14.0667/2021,2000,g  7.0,4.0
# From MPEC 2020-KB7
C/2020 F8 (SWAN),e,110.7782,259.9980,68.2084,272.4453,0.0002192,0.99842108,0.0000,05/27.5774/2020,2000,g 10.0,4.0
# From MPEC 2021-J28
C/2020 H5 (Robinson),e,70.2204,210.6357,326.3984,3631,0.0000045,0.99742624,0.0000,12/11.9083/2020,2000,g  5.0,4.0
# From MPEC 2021-J28
C/2020 H6 (ATLAS),h,10/01.0600/2021,79.9623,213.7055,20.3463,1.000823,4.702902,2000,8.0,3.2
# From MPEC 2021-J28
C/2020 J1 (SONEAR),h,04/18.5723/2021,142.2936,226.5819,341.7485,1.000246,3.355138,2000,8.5,3.2
# From MPEC 2021-J28
C/2020 K1 (PANSTARRS),e,89.6538,94.3677,213.9605,7888,0.0000014,0.99961018,0.0000,05/09.1559/2023,2000,g  5.5,4.0
# From MPEC 2021-J28
C/2020 M3 (ATLAS),e,23.4723,71.2461,328.4517,26.86238,0.0070793,0.95278801,1.5388,05/31.0/2021,2000,g 14.5,4.0
# From MPEC 2021-J28
A/2020 M4,e,160.1262,348.6258,104.6430,7861,0.0000014,0.99924279,0.0000,11/23.8870/2020,2000,g 14.5,2.0
# From MPEC 2021-J28
C/2020 M5 (ATLAS),e,93.2223,352.0959,126.3390,26417,0.0000002,0.99988627,0.0000,08/19.8824/2021,2000,g  9.0,4.0
# From MPEC 2021-J28
C/2020 N1 (PANSTARRS),h,03/12.2236/2021,29.7032,279.9814,186.7694,1.000571,1.320689,2000,12.5,4.0
# From MPEC 2021-J28
C/2020 O2 (Amaral),h,08/28.4319/2021,71.7469,256.7560,10.2853,1.002523,4.862269,2000,8.0,3.2
# From MPEC 2021-J28
C/2020 P3 (ATLAS),e,61.8849,19.4862,82.2475,6962,0.0000017,0.99902153,0.0000,04/20.8659/2021,2000,g  6.0,4.0
# From MPEC 2021-K93
C/2020 PV6 (PANSTARRS),e,128.2390,329.1435,71.3717,41.92235,0.0036311,0.94523968,359.5716,05/31.0/2021,2000,g 10.0,4.0
# From MPEC 2021-J28
C/2020 R4 (ATLAS),e,164.4633,323.2731,46.7123,97.16676,0.0010290,0.98941379,0.0000,03/01.9378/2021,2000,g 13.5,4.0
# From MPEC 2021-J28
C/2020 R7 (ATLAS),e,114.8923,268.2803,347.8211,7477,0.0000015,0.99960458,0.0000,09/16.2617/2022,2000,g  7.0,3.2
# From MPEC 2021-J28
C/2020 S8 (Lemmon),e,108.5190,24.0517,160.3345,275.7122,0.0002153,0.99142640,0.0000,04/10.9309/2021,2000,g 12.5,4.0
# From MPEC 2021-J28
C/2020 T2 (Palomar),e,27.8729,83.0483,150.3822,312.5654,0.0001784,0.99342638,0.0000,07/11.1455/2021,2000,g 11.0,3.2
# From MPEC 2020-L06
P/2020 G1 (Pimentel),e,18.4775,240.0937,207.6567,3.610450,0.1436686,0.85988643,63.1609,05/31.0/2021,2000,g 17.0,4.0
# From MPEC 2020-L06
C/2020 H2 (Pruyne),e,125.0351,277.6411,26.7053,189.5899,0.0003776,0.99560275,0.0000,04/27.6175/2020,2000,g 18.0,4.0
# From MPEC 2020-HM1
C/2020 H3 (Wierzchos),p,06/05.7162/2020,62.5292,30.4456,2.300288,270.6227,2000,13.5,4.0
# From MPEC 2020-L06
C/2020 H4 (Leonard),e,84.5145,307.7361,117.6018,48.13836,0.0029510,0.98074334,0.0000,08/29.5226/2020,2000,g 15.0,3.2
# From MPEC 2020-L06
C/2020 H5 (Robinson),e,70.2611,210.5928,325.0622,1057,0.0000287,0.99113765,0.0000,11/14.7837/2020,2000,g  5.0,4.0
# From MPEC 2020-L06
C/2020 H6 (ATLAS),h,09/30.9861/2021,79.9720,213.6975,20.3186,1.000850,4.704640,2000,8.0,3.2
# From MPEC 2020-KB7
C/2020 H7 (Lemmon),e,135.9235,323.5194,82.6780,1405,0.0000187,0.99685380,0.0000,06/02.9510/2020,2000,g 11.0,4.0
# From MPEC 2020-KB7
C/2020 H8 (PANSTARRS),p,06/06.7207/2020,99.7116,129.2192,4.678446,68.3225,2000,10.5,4.0
# From MPEC 2020-L06
A/2020 H9,e,137.8769,213.1285,312.9012,546.1741,0.0000772,0.99527732,0.0000,12/21.3918/2019,2000,g 18.0,2.0
# From MPEC 2020-L06
C/2020 J1 (SONEAR),e,142.2925,226.5921,341.7349,479.1571,0.0000940,0.99298780,0.0000,04/19.4085/2021,2000,g  8.5,3.2
# From MPEC 2020-L06
C/2020 K1 (PANSTARRS),h,05/08.0341/2023,89.6558,94.3587,213.9263,1.000883,3.073268,2000,5.5,4.0
# From MPEC 2020-KF5
C/2020 K2 (PANSTARRS),p,12/30.6730/2018,89.7510,34.2348,8.177098,285.5819,2000,6.5,4.0
# From MPEC 2020-KF9
C/2020 K3 (Leonard),p,06/01.0032/2020,129.0152,64.4924,1.583069,28.3546,2000,14.5,4.0
# From MPEC 2020-L06
C/2020 K4 (PANSTARRS),e,125.5645,264.0987,308.7755,23.87301,0.0084497,0.92656075,3.8301,05/31.0/2021,2000,g 16.5,4.0
# From MPEC 2020-L06
C/2020 K5 (PANSTARRS),h,06/05.5829/2021,67.1564,86.1607,249.5939,1.001565,1.535493,2000,11.0,4.0
# From MPEC 2020-L06
C/2020 K6 (Rankin),h,09/15.2415/2021,103.6441,291.5264,44.2739,1.003002,5.868609,2000,8.0,4.0
# From MPEC 2020-L09
C/2020 K7 (PANSTARRS),p,10/05.3027/2021,34.5520,60.8413,5.644571,287.4776,2000,8.0,4.0
# From MPEC 2021-BE3
C/2020 K8 (Catalina-ATLAS),h,09/14.5177/2020,31.4173,181.5225,260.0442,1.000235,0.474455,2000,15.0,3.2
# From MPEC 2021-BE3
P/2020 K9 (Lemmon-PANSTARRS),e,23.2100,166.2406,196.8865,4.199184,0.1145399,0.32142670,12.3864,05/31.0/2021,2000,g 12.5,4.0
# From MPEC 2020-K19
P/2020 M1 (PANSTARRS),e,8.6585,142.8727,68.5526,5.138704,0.0846104,0.48080227,44.3417,05/31.0/2021,2000,g 14.5,4.0
# From MPEC 2021-AJ0
C/2020 M3 (ATLAS),e,23.4723,71.2461,328.4517,26.86192,0.0070794,0.95278720,1.5388,05/31.0/2021,2000,g 14.5,4.0
# From MPEC 2021-BE3
C/2020 M3 (ATLAS),e,23.4723,71.2461,328.4517,26.86204,0.0070794,0.95278741,1.5388,05/31.0/2021,2000,g 14.5,4.0
# From MPEC 2020-K19
A/2020 M4,e,160.1262,348.6276,104.6513,9103,0.0000011,0.99934608,0.0000,11/23.9513/2020,2000,g 14.5,2.0
# From MPEC 2021-BE3
C/2020 M5 (ATLAS),e,93.2222,352.0958,126.3393,26104,0.0000002,0.99988491,0.0000,08/19.8824/2021,2000,g  9.0,4.0
# From MPEC 2021-BE3
C/2020 N1 (PANSTARRS),h,03/12.2267/2021,29.7032,279.9813,186.7698,1.000525,1.320703,2000,12.5,4.0
# From MPEC 2020-W26
C/2020 N2 (ATLAS),e,161.0342,257.0745,331.2134,108.3913,0.0008734,0.98344739,0.0000,08/23.6809/2020,2000,g 16.0,3.2
# From MPEC 2020-SI8
P/2020 O1 (Lemmon-PANSTARRS),e,5.2259,175.9770,104.5469,2.644568,0.2291775,0.11951122,90.1237,05/31.0/2021,2000,g 15.5,4.0
# From MPEC 2021-BE3
C/2020 O2 (Amaral),h,08/28.1679/2021,71.7519,256.7518,10.2341,1.002191,4.864485,2000,8.0,3.2
# From MPEC 2020-SI8
P/2020 O3 (PANSTARRS),e,8.4409,266.8501,81.5443,4.654098,0.0981637,0.10471563,11.8587,05/31.0/2021,2000,g 12.0,4.0
# From MPEC 2021-BE3
C/2020 P1 (NEOWISE),h,10/20.1792/2020,45.0596,53.5335,8.8930,1.000276,0.342104,2000,14.0,3.2
# From MPEC 2021-BE3
C/2020 P3 (ATLAS),e,61.8848,19.4859,82.2478,6831,0.0000017,0.99900275,0.0000,04/20.8676/2021,2000,g  6.0,4.0
# From MPEC 2021-BE3
C/2020 Q1 (Borisov),e,142.9186,52.4081,9.9044,59.14510,0.0021668,0.97776826,0.0000,08/14.6522/2020,2000,g 14.0,4.0
# From MPEC 2021-BE3
C/2020 R2 (PANSTARRS),e,53.2234,195.0924,211.7022,409.8254,0.0001188,0.98855038,0.0000,02/24.2644/2022,2000,g  9.0,4.0
# From MPEC 2021-BE3
C/2020 R4 (ATLAS),e,164.4629,323.2764,46.7277,95.94343,0.0010488,0.98928076,0.0000,03/01.9425/2021,2000,g 13.5,4.0
# From MPEC 2020-W26
P/2020 R5 (PANSTARRS),e,11.4538,272.9731,82.3718,4.980448,0.0886751,0.31460567,32.5881,05/31.0/2021,2000,g  9.5,6.0
# From MPEC 2020-W26
C/2020 R6 (Rankin),e,82.8218,12.1745,271.9558,557.3859,0.0000749,0.99439106,0.0000,09/10.1985/2019,2000,g 11.0,4.0
# From MPEC 2021-BE3
C/2020 R7 (ATLAS),e,114.8914,268.2771,347.8316,6190,0.0000020,0.99952249,0.0000,09/16.2556/2022,2000,g  7.0,3.2
# From MPEC 2021-BE3
P/2020 S1 (PANSTARRS),e,13.7340,129.4590,254.8914,5.981042,0.0673812,0.50721860,9.0295,05/31.0/2021,2000,g 14.0,4.0
# From MPEC 2021-BE3
